QIANFAN-17              
1 60395U 24140S   25320.81121825  .00000062  00000+0  78079-4 0  9996
2 60395  88.9745 302.1186 0013092 283.6332  76.3360 13.50972672 64635
QIANFAN-18              
1 60396U 24140T   25320.79062806  .00000077  00000+0  10055-3 0  9992
2 60396  88.9738 301.6561 0012311 263.7243  96.2505 13.50972667 64021
QIANFAN-19              
1 61552U 24185A   25320.76026693  .00000968  00000+0  50007-3 0  9997
2 61552  88.9810  80.9124 0007996  42.7300 317.4507 14.14257598 65998
QIANFAN-20              
1 61553U 24185B   25320.76336422  .00001086  00000+0  62152-3 0  9998
2 61553  88.9809  81.2098 0007483  75.5644 284.6370 14.08803338 65835
QIANFAN-21              
1 61554U 24185C   25320.79532954  .00001335  00000+0  59129-3 0  9997
2 61554  88.9726  80.0125 0012721  89.5311 270.7338 14.22557168 66282
QIANFAN-22              
1 61555U 24185D   25320.80531593  .00000329  00000+0  27360-3 0  9992
2 61555  88.9791  82.0822 0008349  80.3727 279.8387 13.86289481 65341
QIANFAN-23              
1 61556U 24185E   25320.77227385  .00000917  00000+0  45558-3 0  9992
2 61556  88.9803  80.7330 0009076  51.3207 308.8791 14.16256600 66078
QIANFAN-24              
1 61557U 24185F   25320.81990706  .00001430  00000+0  61941-3 0  9997
2 61557  88.9784  80.1749 0010354  34.4802 325.7060 14.23762011 66331
